{
 "generated_at": "2026-06-24T08:22:35Z",
 "sources": [
  {
   "name": "CelesTrak",
   "url": "https://celestrak.org/NORAD/elements/",
   "license": "frei verfügbar; Attribution. Ursprünglich USSPACECOM/Space-Track."
  },
  {
   "name": "GCAT (J. McDowell, planet4589.org)",
   "url": "https://planet4589.org/space/gcat/",
   "license": "CC-BY 4.0"
  }
 ],
 "satellites": [
  {
   "norad": 44390,
   "name": "ICEYE-X4",
   "intl": "2019-038D",
   "group": "sar",
   "gcat": {
    "class": "B",
    "category": "IMG-R",
    "owner": "ICEYE",
    "state": "FI"
   },
   "omm": {
    "OBJECT_NAME": "ICEYE-X4",
    "OBJECT_ID": "2019-038D",
    "EPOCH": "2026-06-24T00:03:33.642144",
    "MEAN_MOTION": 15.2942074,
    "ECCENTRICITY": 0.00113719,
    "INCLINATION": 97.8761,
    "RA_OF_ASC_NODE": 208.3154,
    "ARG_OF_PERICENTER": 279.874,
    "MEAN_ANOMALY": 80.1215,
    "EPHEMERIS_TYPE": 0,
    "CLASSIFICATION_TYPE": "U",
    "NORAD_CAT_ID": 44390,
    "ELEMENT_SET_NO": 999,
    "REV_AT_EPOCH": 38284,
    "BSTAR": 0.00033341536,
    "MEAN_MOTION_DOT": 0.00009448,
    "MEAN_MOTION_DDOT": 0
   }
  },
  {
   "norad": 60549,
   "name": "ICEYE-X40",
   "intl": "2024-149CK",
   "group": "sar",
   "gcat": {
    "class": "B",
    "category": "IMG-R",
    "owner": "ALYAH",
    "state": "UAE"
   },
   "omm": {
    "OBJECT_NAME": "ICEYE-X40",
    "OBJECT_ID": "2024-149CK",
    "EPOCH": "2026-06-23T18:46:14.385216",
    "MEAN_MOTION": 14.97960831,
    "ECCENTRICITY": 0.00061067,
    "INCLINATION": 97.6817,
    "RA_OF_ASC_NODE": 251.1724,
    "ARG_OF_PERICENTER": 62.6765,
    "MEAN_ANOMALY": 297.5078,
    "EPHEMERIS_TYPE": 0,
    "CLASSIFICATION_TYPE": "U",
    "NORAD_CAT_ID": 60549,
    "ELEMENT_SET_NO": 999,
    "REV_AT_EPOCH": 10106,
    "BSTAR": 0.000075508279,
    "MEAN_MOTION_DOT": 0.00000833,
    "MEAN_MOTION_DDOT": 0
   }
  },
  {
   "norad": 62700,
   "name": "ICEYE-X41",
   "intl": "2025-009CV",
   "group": "sar",
   "gcat": {
    "class": "B",
    "category": "IMG-R",
    "owner": "ICEUS",
    "state": "US"
   },
   "omm": {
    "OBJECT_NAME": "ICEYE-X41",
    "OBJECT_ID": "2025-009CV",
    "EPOCH": "2026-06-23T22:56:35.862432",
    "MEAN_MOTION": 14.96785177,
    "ECCENTRICITY": 0.00017262,
    "INCLINATION": 97.7062,
    "RA_OF_ASC_NODE": 254.3833,
    "ARG_OF_PERICENTER": 52.225,
    "MEAN_ANOMALY": 307.9128,
    "EPHEMERIS_TYPE": 0,
    "CLASSIFICATION_TYPE": "U",
    "NORAD_CAT_ID": 62700,
    "ELEMENT_SET_NO": 999,
    "REV_AT_EPOCH": 7842,
    "BSTAR": 0.00026024225,
    "MEAN_MOTION_DOT": 0.00002921,
    "MEAN_MOTION_DDOT": 0
   }
  },
  {
   "norad": 62698,
   "name": "ICEYE-X42",
   "intl": "2025-009CT",
   "group": "sar",
   "gcat": {
    "class": "B",
    "category": "IMG-R",
    "owner": "SP42",
    "state": "UAE"
   },
   "omm": {
    "OBJECT_NAME": "ICEYE-X42",
    "OBJECT_ID": "2025-009CT",
    "EPOCH": "2026-06-23T20:19:50.342016",
    "MEAN_MOTION": 14.91854613,
    "ECCENTRICITY": 0.00013075,
    "INCLINATION": 97.7397,
    "RA_OF_ASC_NODE": 253.0424,
    "ARG_OF_PERICENTER": 91.593,
    "MEAN_ANOMALY": 268.5439,
    "EPHEMERIS_TYPE": 0,
    "CLASSIFICATION_TYPE": "U",
    "NORAD_CAT_ID": 62698,
    "ELEMENT_SET_NO": 999,
    "REV_AT_EPOCH": 7828,
    "BSTAR": 0.00017817439,
    "MEAN_MOTION_DOT": 0.00001744,
    "MEAN_MOTION_DDOT": 0
   }
  },
  {
   "norad": 60539,
   "name": "ICEYE-X43",
   "intl": "2024-149BZ",
   "group": "sar",
   "gcat": {
    "class": "B",
    "category": "IMG-R",
    "owner": "FAB/ICEYE",
    "state": "BR"
   },
   "omm": {
    "OBJECT_NAME": "ICEYE-X43",
    "OBJECT_ID": "2024-149BZ",
    "EPOCH": "2026-06-23T04:00:56.755584",
    "MEAN_MOTION": 14.99654472,
    "ECCENTRICITY": 0.00082381,
    "INCLINATION": 97.6801,
    "RA_OF_ASC_NODE": 251.0501,
    "ARG_OF_PERICENTER": 67.6527,
    "MEAN_ANOMALY": 292.5569,
    "EPHEMERIS_TYPE": 0,
    "CLASSIFICATION_TYPE": "U",
    "NORAD_CAT_ID": 60539,
    "ELEMENT_SET_NO": 999,
    "REV_AT_EPOCH": 10101,
    "BSTAR": 0.0002697014,
    "MEAN_MOTION_DOT": 0.00003267,
    "MEAN_MOTION_DDOT": 0
   }
  },
  {
   "norad": 62707,
   "name": "ICEYE-X44",
   "intl": "2025-009DC",
   "group": "sar",
   "gcat": {
    "class": "B",
    "category": "IMG-R",
    "owner": "SP42",
    "state": "UAE"
   },
   "omm": {
    "OBJECT_NAME": "ICEYE-X44",
    "OBJECT_ID": "2025-009DC",
    "EPOCH": "2026-06-23T12:09:10.274688",
    "MEAN_MOTION": 14.96049985,
    "ECCENTRICITY": 0.00030825,
    "INCLINATION": 97.7062,
    "RA_OF_ASC_NODE": 253.5323,
    "ARG_OF_PERICENTER": 102.8824,
    "MEAN_ANOMALY": 257.2741,
    "EPHEMERIS_TYPE": 0,
    "CLASSIFICATION_TYPE": "U",
    "NORAD_CAT_ID": 62707,
    "ELEMENT_SET_NO": 999,
    "REV_AT_EPOCH": 10088,
    "BSTAR": 0.00027409163,
    "MEAN_MOTION_DOT": 0.00003021,
    "MEAN_MOTION_DDOT": 0
   }
  },
  {
   "norad": 62705,
   "name": "ICEYE-X45",
   "intl": "2025-009DA",
   "group": "sar",
   "gcat": {
    "class": "B",
    "category": "IMG-R",
    "owner": "ICEUS",
    "state": "US"
   },
   "omm": {
    "OBJECT_NAME": "ICEYE-X45",
    "OBJECT_ID": "2025-009DA",
    "EPOCH": "2026-06-23T04:43:00.069312",
    "MEAN_MOTION": 15.00848333,
    "ECCENTRICITY": 0.00014904,
    "INCLINATION": 97.8337,
    "RA_OF_ASC_NODE": 260.9291,
    "ARG_OF_PERICENTER": 99.6081,
    "MEAN_ANOMALY": 260.5311,
    "EPHEMERIS_TYPE": 0,
    "CLASSIFICATION_TYPE": "U",
    "NORAD_CAT_ID": 62705,
    "ELEMENT_SET_NO": 999,
    "REV_AT_EPOCH": 7858,
    "BSTAR": 0.00014777561,
    "MEAN_MOTION_DOT": 0.00001817,
    "MEAN_MOTION_DDOT": 0
   }
  },
  {
   "norad": 63258,
   "name": "ICEYE-X46",
   "intl": "2025-052BA",
   "group": "sar",
   "gcat": {
    "class": "B",
    "category": "IMG-R",
    "owner": "ICEYE",
    "state": "FI"
   },
   "omm": {
    "OBJECT_NAME": "ICEYE-X46",
    "OBJECT_ID": "2025-052BA",
    "EPOCH": "2026-06-23T23:31:32.404224",
    "MEAN_MOTION": 14.95304338,
    "ECCENTRICITY": 0.00018074,
    "INCLINATION": 97.6887,
    "RA_OF_ASC_NODE": 66.7435,
    "ARG_OF_PERICENTER": 86.2926,
    "MEAN_ANOMALY": 273.8502,
    "EPHEMERIS_TYPE": 0,
    "CLASSIFICATION_TYPE": "U",
    "NORAD_CAT_ID": 63258,
    "ELEMENT_SET_NO": 999,
    "REV_AT_EPOCH": 6966,
    "BSTAR": 0.00012453712,
    "MEAN_MOTION_DOT": 0.00001316,
    "MEAN_MOTION_DDOT": 0
   }
  },
  {
   "norad": 62389,
   "name": "ICEYE-X47",
   "intl": "2024-247N",
   "group": "sar",
   "gcat": {
    "class": "B",
    "category": "IMG-R",
    "owner": "ICEYE",
    "state": "FI"
   },
   "omm": {
    "OBJECT_NAME": "ICEYE-X47",
    "OBJECT_ID": "2024-247N",
    "EPOCH": "2026-06-23T21:04:41.102400",
    "MEAN_MOTION": 15.13326128,
    "ECCENTRICITY": 0.00025155,
    "INCLINATION": 44.9968,
    "RA_OF_ASC_NODE": 321.2602,
    "ARG_OF_PERICENTER": 271.2862,
    "MEAN_ANOMALY": 88.7727,
    "EPHEMERIS_TYPE": 0,
    "CLASSIFICATION_TYPE": "U",
    "NORAD_CAT_ID": 62389,
    "ELEMENT_SET_NO": 999,
    "REV_AT_EPOCH": 8319,
    "BSTAR": 0.00026739571,
    "MEAN_MOTION_DOT": 0.0000459,
    "MEAN_MOTION_DDOT": 0
   }
  },
  {
   "norad": 63253,
   "name": "ICEYE-X48",
   "intl": "2025-052AV",
   "group": "sar",
   "gcat": {
    "class": "B",
    "category": "IMG-R",
    "owner": "ICEUS",
    "state": "US"
   },
   "omm": {
    "OBJECT_NAME": "ICEYE-X48",
    "OBJECT_ID": "2025-052AV",
    "EPOCH": "2026-06-23T16:03:48.549024",
    "MEAN_MOTION": 14.97996948,
    "ECCENTRICITY": 0.00023989,
    "INCLINATION": 97.6882,
    "RA_OF_ASC_NODE": 66.7585,
    "ARG_OF_PERICENTER": 134.6833,
    "MEAN_ANOMALY": 225.4585,
    "EPHEMERIS_TYPE": 0,
    "CLASSIFICATION_TYPE": "U",
    "NORAD_CAT_ID": 63253,
    "ELEMENT_SET_NO": 999,
    "REV_AT_EPOCH": 6964,
    "BSTAR": 0.00013077765,
    "MEAN_MOTION_DOT": 0.00001486,
    "MEAN_MOTION_DDOT": 0
   }
  }
 ]
}
