ICEYE-X4                
1 44390U 19038D   26175.00247271  .00009448  00000+0  33342-3 0  9997
2 44390  97.8761 208.3154 0011371 279.8740  80.1215 15.29420740382849
ICEYE-X43               
1 60539U 24149BZ  26174.16732356  .00003267  00000+0  26970-3 0  9990
2 60539  97.6801 251.0501 0008238  67.6527 292.5569 14.99654472101016
ICEYE-X40               
1 60549U 24149CK  26174.78211094  .00000833  00000+0  75508-4 0  9998
2 60549  97.6817 251.1724 0006106  62.6765 297.5078 14.97960831101065
ICEYE-X47               
1 62389U 24247N   26174.87825350  .00004590  00000+0  26740-3 0  9994
2 62389  44.9968 321.2602 0002515 271.2862  88.7727 15.13326128 83199
ICEYE-X42               
1 62698U 25009CT  26174.84711044  .00001744  00000+0  17817-3 0  9998
2 62698  97.7397 253.0424 0001307  91.5930 268.5439 14.91854613 78287
ICEYE-X41               
1 62700U 25009CV  26174.95597063  .00002921  00000+0  26024-3 0  9995
2 62700  97.7062 254.3833 0001726  52.2250 307.9128 14.96785177 78424
ICEYE-X45               
1 62705U 25009DA  26174.19652858  .00001817  00000+0  14778-3 0  9996
2 62705  97.8337 260.9291 0001490  99.6081 260.5311 15.00848333 78586
ICEYE-X44               
1 62707U 25009DC  26174.50636892  .00003021  00000+0  27409-3 0  9997
2 62707  97.7062 253.5323 0003082 102.8824 257.2741 14.96049985100886
ICEYE-X48               
1 63253U 25052AV  26174.66931191  .00001486  00000+0  13078-3 0  9999
2 63253  97.6882  66.7585 0002398 134.6833 225.4585 14.97996948 69640
ICEYE-X46               
1 63258U 25052BA  26174.98023616  .00001316  00000+0  12454-3 0  9992
2 63258  97.6887  66.7435 0001807  86.2926 273.8502 14.95304338 69665
